start=new Date('2022-01-06T00:00:00.000Z').valueOf();
sats=[{"REV_AT_EPOCH":"4736","MEAN_MOTION_DOT":"-0.00001408","MEAN_ELEMENT_THEORY":"SGP4","LAUNCH_DATE":"2021-03-14","OBJECT_NAME":"STARLINK-2323","OBJECT_ID":"2021-021J","BSTAR":"-0.00007559700000","REF_FRAME":"TEME","CENTER_NAME":"EARTH","PERIAPSIS":"545.251","RA_OF_ASC_NODE":"212.3912","INCLINATION":"53.0550","RCS_SIZE":"LARGE","APOAPSIS":"549.213","SITE":"AFETR","ARG_OF_PERICENTER":"77.6900","MEAN_MOTION":"15.06393981","MEAN_ANOMALY":"282.4409","NORAD_CAT_ID":"47868","TIME_SYSTEM":"UTC","CLASSIFICATION_TYPE":"U","EPHEMERIS_TYPE":"0","PERIOD":"95.593","COUNTRY_CODE":"US","DECAY_DATE":null,"TLE_LINE2":"2 47868  53.0550 212.3912 0002860  77.6900 282.4409 15.06393981 47362","GP_ID":"193285869","SEMIMAJOR_AXIS":"6925.367","MEAN_MOTION_DDOT":"0.0000000000000","TLE_LINE1":"1 47868U 21021J   22005.84873284 -.00001408  00000-0 -75597-4 0  9994","ELEMENT_SET_NO":"999","ECCENTRICITY":"0.00028600","FILE":"3265018","EPOCH":"2022-01-05T20:22:10.517376","OBJECT_TYPE":"PAYLOAD"},{"TIME_SYSTEM":"UTC","MEAN_ANOMALY":"306.4391","NORAD_CAT_ID":"47869","CLASSIFICATION_TYPE":"U","PERIOD":"95.592","COUNTRY_CODE":"US","EPHEMERIS_TYPE":"0","GP_ID":"193284652","SEMIMAJOR_AXIS":"6925.355","MEAN_MOTION_DDOT":"0.0000000000000","DECAY_DATE":null,"TLE_LINE2":"2 47869  53.0562 262.1056 0002031  53.6785 306.4391 15.06398006 46777","TLE_LINE1":"1 47869U 21021K   22005.91783594 -.00001609  00000-0 -89104-4 0  9999","ELEMENT_SET_NO":"999","OBJECT_TYPE":"PAYLOAD","EPOCH":"2022-01-05T22:01:41.025216","ECCENTRICITY":"0.00020310","FILE":"3265018","REV_AT_EPOCH":"4677","MEAN_MOTION_DOT":"-0.00001609","MEAN_ELEMENT_THEORY":"SGP4","LAUNCH_DATE":"2021-03-14","OBJECT_NAME":"STARLINK-2324","OBJECT_ID":"2021-021K","BSTAR":"-0.00008910400000","CENTER_NAME":"EARTH","REF_FRAME":"TEME","RCS_SIZE":"MEDIUM","RA_OF_ASC_NODE":"262.1056","PERIAPSIS":"545.813","INCLINATION":"53.0562","ARG_OF_PERICENTER":"53.6785","MEAN_MOTION":"15.06398006","SITE":"AFETR","APOAPSIS":"548.626"},{"CLASSIFICATION_TYPE":"U","PERIOD":"95.593","COUNTRY_CODE":"US","EPHEMERIS_TYPE":"0","TIME_SYSTEM":"UTC","MEAN_ANOMALY":"306.2065","NORAD_CAT_ID":"47870","ELEMENT_SET_NO":"999","OBJECT_TYPE":"PAYLOAD","EPOCH":"2022-01-05T22:27:33.266016","FILE":"3265018","ECCENTRICITY":"0.00018890","SEMIMAJOR_AXIS":"6925.386","GP_ID":"193284902","MEAN_MOTION_DDOT":"0.0000000000000","DECAY_DATE":null,"TLE_LINE2":"2 47870  53.0470 287.0387 0001889  53.9098 306.2065 15.06387721 46217","TLE_LINE1":"1 47870U 21021L   22005.93580169  .00000182  00000-0  31106-4 0  9998","LAUNCH_DATE":"2021-03-14","OBJECT_NAME":"STARLINK-2326","OBJECT_ID":"2021-021L","REV_AT_EPOCH":"4621","MEAN_MOTION_DOT":"0.00000182","MEAN_ELEMENT_THEORY":"SGP4","RCS_SIZE":"MEDIUM","RA_OF_ASC_NODE":"287.0387","PERIAPSIS":"545.943","INCLINATION":"53.0470","ARG_OF_PERICENTER":"53.9098","MEAN_MOTION":"15.06387721","APOAPSIS":"548.559","SITE":"AFETR","BSTAR":"0.00003110600000","CENTER_NAME":"EARTH","REF_FRAME":"TEME"},{"INCLINATION":"53.0563","PERIAPSIS":"545.914","RA_OF_ASC_NODE":"262.4200","RCS_SIZE":"LARGE","SITE":"AFETR","APOAPSIS":"548.590","MEAN_MOTION":"15.06387462","ARG_OF_PERICENTER":"66.4223","BSTAR":"-0.00003844300000","REF_FRAME":"TEME","CENTER_NAME":"EARTH","LAUNCH_DATE":"2021-03-14","OBJECT_ID":"2021-021M","OBJECT_NAME":"STARLINK-2327","MEAN_MOTION_DOT":"-0.00000854","REV_AT_EPOCH":"4665","MEAN_ELEMENT_THEORY":"SGP4","ELEMENT_SET_NO":"999","FILE":"3265018","ECCENTRICITY":"0.00019320","EPOCH":"2022-01-05T20:20:50.596512","OBJECT_TYPE":"PAYLOAD","TLE_LINE2":"2 47871  53.0563 262.4200 0001932  66.4223 293.6969 15.06387462 46652","DECAY_DATE":null,"MEAN_MOTION_DDOT":"0.0000000000000","GP_ID":"193286150","SEMIMAJOR_AXIS":"6925.387","TLE_LINE1":"1 47871U 21021M   22005.84780783 -.00000854  00000-0 -38443-4 0  9992","CLASSIFICATION_TYPE":"U","EPHEMERIS_TYPE":"0","COUNTRY_CODE":"US","PERIOD":"95.593","NORAD_CAT_ID":"47871","MEAN_ANOMALY":"293.6969","TIME_SYSTEM":"UTC"},{"LAUNCH_DATE":"2021-03-14","OBJECT_ID":"2021-021N","OBJECT_NAME":"STARLINK-2328","MEAN_MOTION_DOT":"-0.00001061","REV_AT_EPOCH":"4723","MEAN_ELEMENT_THEORY":"SGP4","RCS_SIZE":"LARGE","INCLINATION":"53.0608","RA_OF_ASC_NODE":"222.1094","PERIAPSIS":"546.084","MEAN_MOTION":"15.06393174","ARG_OF_PERICENTER":"77.3102","SITE":"AFETR","APOAPSIS":"548.385","BSTAR":"-0.00005236500000","CENTER_NAME":"EARTH","REF_FRAME":"TEME","CLASSIFICATION_TYPE":"U","COUNTRY_CODE":"US","PERIOD":"95.593","EPHEMERIS_TYPE":"0","TIME_SYSTEM":"UTC","NORAD_CAT_ID":"47872","MEAN_ANOMALY":"282.8073","ELEMENT_SET_NO":"999","EPOCH":"2022-01-05T21:51:04.804992","OBJECT_TYPE":"PAYLOAD","ECCENTRICITY":"0.00016610","FILE":"3265018","GP_ID":"193286369","SEMIMAJOR_AXIS":"6925.369","MEAN_MOTION_DDOT":"0.0000000000000","TLE_LINE2":"2 47872  53.0608 222.1094 0001661  77.3102 282.8073 15.06393174 47231","DECAY_DATE":null,"TLE_LINE1":"1 47872U 21021N   22005.91047228 -.00001061  00000-0 -52365-4 0  9991"},{"PERIAPSIS":"545.666","RA_OF_ASC_NODE":"262.1832","INCLINATION":"53.0527","RCS_SIZE":"LARGE","SITE":"AFETR","APOAPSIS":"548.847","ARG_OF_PERICENTER":"54.7179","MEAN_MOTION":"15.06385993","BSTAR":"-0.00000699360000","REF_FRAME":"TEME","CENTER_NAME":"EARTH","LAUNCH_DATE":"2021-03-14","OBJECT_NAME":"STARLINK-2329","OBJECT_ID":"2021-021P","REV_AT_EPOCH":"4665","MEAN_MOTION_DOT":"-0.00000386","MEAN_ELEMENT_THEORY":"SGP4","ELEMENT_SET_NO":"999","FILE":"3265018","ECCENTRICITY":"0.00022960","OBJECT_TYPE":"PAYLOAD","EPOCH":"2022-01-05T21:29:50.951904","DECAY_DATE":null,"TLE_LINE2":"2 47873  53.0527 262.1832 0002296  54.7179 305.4024 15.06385993 46657","SEMIMAJOR_AXIS":"6925.391","GP_ID":"193285152","MEAN_MOTION_DDOT":"0.0000000000000","TLE_LINE1":"1 47873U 21021P   22005.89572861 -.00000386  00000-0 -69936-5 0  9997","CLASSIFICATION_TYPE":"U","EPHEMERIS_TYPE":"0","PERIOD":"95.593","COUNTRY_CODE":"US","MEAN_ANOMALY":"305.4024","NORAD_CAT_ID":"47873","TIME_SYSTEM":"UTC"},{"REV_AT_EPOCH":"4729","MEAN_MOTION_DOT":"-0.00000789","MEAN_ELEMENT_THEORY":"SGP4","LAUNCH_DATE":"2021-03-14","OBJECT_NAME":"STARLINK-2330","OBJECT_ID":"2021-021Q","BSTAR":"-0.00003404200000","CENTER_NAME":"EARTH","REF_FRAME":"TEME","RCS_SIZE":"LARGE","PERIAPSIS":"545.758","RA_OF_ASC_NODE":"217.1548","INCLINATION":"53.0519","ARG_OF_PERICENTER":"63.7721","MEAN_MOTION":"15.06392142","SITE":"AFETR","APOAPSIS":"548.717","TIME_SYSTEM":"UTC","MEAN_ANOMALY":"296.3487","NORAD_CAT_ID":"47874","CLASSIFICATION_TYPE":"U","PERIOD":"95.593","COUNTRY_CODE":"US","EPHEMERIS_TYPE":"0","GP_ID":"193285402","SEMIMAJOR_AXIS":"6925.373","MEAN_MOTION_DDOT":"0.0000000000000","DECAY_DATE":null,"TLE_LINE2":"2 47874  53.0519 217.1548 0002136  63.7721 296.3487 15.06392142 47295","TLE_LINE1":"1 47874U 21021Q   22005.90446150 -.00000789  00000-0 -34042-4 0  9997","ELEMENT_SET_NO":"999","EPOCH":"2022-01-05T21:42:25.473600","OBJECT_TYPE":"PAYLOAD","ECCENTRICITY":"0.00021360","FILE":"3265018"},{"EPOCH":"2022-01-05T21:17:53.210688","OBJECT_TYPE":"PAYLOAD","FILE":"3265018","ECCENTRICITY":"0.00021210","ELEMENT_SET_NO":"999","TLE_LINE1":"1 47875U 21021R   22005.88742142 -.00000228  00000-0  36300-5 0  9992","GP_ID":"193285651","SEMIMAJOR_AXIS":"6925.355","MEAN_MOTION_DDOT":"0.0000000000000","DECAY_DATE":null,"TLE_LINE2":"2 47875  53.0565 272.2309 0002121  52.9803 307.1379 15.06398001 46570","PERIOD":"95.592","COUNTRY_CODE":"US","EPHEMERIS_TYPE":"0","CLASSIFICATION_TYPE":"U","TIME_SYSTEM":"UTC","MEAN_ANOMALY":"307.1379","NORAD_CAT_ID":"47875","ARG_OF_PERICENTER":"52.9803","MEAN_MOTION":"15.06398001","SITE":"AFETR","APOAPSIS":"548.689","RCS_SIZE":"LARGE","RA_OF_ASC_NODE":"272.2309","PERIAPSIS":"545.751","INCLINATION":"53.0565","CENTER_NAME":"EARTH","REF_FRAME":"TEME","BSTAR":"0.00000363000000","OBJECT_NAME":"STARLINK-2331","OBJECT_ID":"2021-021R","LAUNCH_DATE":"2021-03-14","MEAN_ELEMENT_THEORY":"SGP4","REV_AT_EPOCH":"4657","MEAN_MOTION_DOT":"-0.00000228"},{"TLE_LINE1":"1 47876U 21021S   22005.87636626  .00000534  00000-0  54759-4 0  9997","DECAY_DATE":null,"TLE_LINE2":"2 47876  53.0565 272.2906 0002002  58.0122 302.1061 15.06398592 46526","SEMIMAJOR_AXIS":"6925.353","GP_ID":"193285870","MEAN_MOTION_DDOT":"0.0000000000000","ECCENTRICITY":"0.00020020","FILE":"3265018","EPOCH":"2022-01-05T21:01:58.044864","OBJECT_TYPE":"PAYLOAD","ELEMENT_SET_NO":"999","MEAN_ANOMALY":"302.1061","NORAD_CAT_ID":"47876","TIME_SYSTEM":"UTC","EPHEMERIS_TYPE":"0","PERIOD":"95.592","COUNTRY_CODE":"US","CLASSIFICATION_TYPE":"U","REF_FRAME":"TEME","CENTER_NAME":"EARTH","BSTAR":"0.00005475900000","APOAPSIS":"548.604","SITE":"AFETR","ARG_OF_PERICENTER":"58.0122","MEAN_MOTION":"15.06398592","RA_OF_ASC_NODE":"272.2906","PERIAPSIS":"545.831","INCLINATION":"53.0565","RCS_SIZE":"LARGE","MEAN_ELEMENT_THEORY":"SGP4","REV_AT_EPOCH":"4652","MEAN_MOTION_DOT":"0.00000534","OBJECT_NAME":"STARLINK-2332","OBJECT_ID":"2021-021S","LAUNCH_DATE":"2021-03-14"},{"COUNTRY_CODE":"US","PERIOD":"95.593","EPHEMERIS_TYPE":"0","CLASSIFICATION_TYPE":"U","TIME_SYSTEM":"UTC","NORAD_CAT_ID":"47877","MEAN_ANOMALY":"298.3828","EPOCH":"2022-01-05T21:23:12.528672","OBJECT_TYPE":"PAYLOAD","FILE":"3265018","ECCENTRICITY":"0.00018950","ELEMENT_SET_NO":"999","TLE_LINE1":"1 47877U 21021T   22005.89111723 -.00001106  00000-0 -55365-4 0  9998","GP_ID":"193284653","MEAN_MOTION_DDOT":"0.0000000000000","SEMIMAJOR_AXIS":"6925.370","TLE_LINE2":"2 47877  53.0569 272.2115 0001895  61.7352 298.3828 15.06393074 46514","DECAY_DATE":null,"OBJECT_ID":"2021-021T","OBJECT_NAME":"STARLINK-2333","LAUNCH_DATE":"2021-03-14","MEAN_ELEMENT_THEORY":"SGP4","MEAN_MOTION_DOT":"-0.00001106","REV_AT_EPOCH":"4651","MEAN_MOTION":"15.06393074","ARG_OF_PERICENTER":"61.7352","SITE":"AFETR","APOAPSIS":"548.547","RCS_SIZE":"LARGE","INCLINATION":"53.0569","RA_OF_ASC_NODE":"272.2115","PERIAPSIS":"545.922","CENTER_NAME":"EARTH","REF_FRAME":"TEME","BSTAR":"-0.00005536500000"}];
